[{"OBJECT_NAME":"STARLINK-34422","OBJECT_ID":"2025-129D","EPOCH":"2026-03-09T09:51:49.978368","MEAN_MOTION":14.98327129,"ECCENTRICITY":0.00033477,"INCLINATION":70.0008,"RA_OF_ASC_NODE":75.2388,"ARG_OF_PERICENTER":269.7857,"MEAN_ANOMALY":90.2919,"EPHEMERIS_TYPE":0,"CLASSIFICATION_TYPE":"U","NORAD_CAT_ID":64415,"ELEMENT_SET_NO":999,"REV_AT_EPOCH":4118,"BSTAR":4.5581945e-5,"MEAN_MOTION_DOT":4.51e-6,"MEAN_MOTION_DDOT":0},{"OBJECT_NAME":"CZ-6A DEB","OBJECT_ID":"2022-151BA","EPOCH":"2026-03-08T17:30:58.855968","MEAN_MOTION":14.9439792,"ECCENTRICITY":0.00472807,"INCLINATION":98.5596,"RA_OF_ASC_NODE":128.1704,"ARG_OF_PERICENTER":200.9968,"MEAN_ANOMALY":158.931,"EPHEMERIS_TYPE":0,"CLASSIFICATION_TYPE":"U","NORAD_CAT_ID":54307,"ELEMENT_SET_NO":999,"REV_AT_EPOCH":10452,"BSTAR":0.0069448926,"MEAN_MOTION_DOT":0.00077164,"MEAN_MOTION_DDOT":0}]
